[{"OBJECT_NAME":"COSMOS 2483 (RODNIK-S 5)","OBJECT_ID":"2013-001B","EPOCH":"2026-03-09T22:53:33.379584","MEAN_MOTION":12.4402181,"ECCENTRICITY":0.00160135,"INCLINATION":82.4951,"RA_OF_ASC_NODE":276.7645,"ARG_OF_PERICENTER":228.1191,"MEAN_ANOMALY":131.8524,"EPHEMERIS_TYPE":0,"CLASSIFICATION_TYPE":"U","NORAD_CAT_ID":39058,"ELEMENT_SET_NO":999,"REV_AT_EPOCH":58925,"BSTAR":-0.00076592972,"MEAN_MOTION_DOT":-9.8e-7,"MEAN_MOTION_DDOT":0},{"OBJECT_NAME":"DELTA 1 DEB","OBJECT_ID":"1976-077GJ","EPOCH":"2026-03-09T22:52:26.660640","MEAN_MOTION":12.45440986,"ECCENTRICITY":0.00272769,"INCLINATION":102.1648,"RA_OF_ASC_NODE":69.5031,"ARG_OF_PERICENTER":243.8886,"MEAN_ANOMALY":115.9373,"EPHEMERIS_TYPE":0,"CLASSIFICATION_TYPE":"U","NORAD_CAT_ID":40765,"ELEMENT_SET_NO":999,"REV_AT_EPOCH":55893,"BSTAR":0.0006072511,"MEAN_MOTION_DOT":4.1e-7,"MEAN_MOTION_DDOT":0}]
